SAUDISAT 1C             
1 27607U 02058C   22297.91621723  .00001057  00000+0  16417-3 0  9994
2 27607  64.5539 265.6683 0081611 269.8176  89.3575 14.76349380 67485
SAUDISAT 2              
1 28371U 04025F   22297.88451884  .00000458  00000+0  11767-3 0  9991
2 28371  98.3956 254.9890 0026658  67.9535 292.4493 14.54630054972106
SAUDISAT 3              
1 31118U 07012B   22298.10112265  .00000243  00000+0  49229-4 0  9993
2 31118  97.9828 242.0914 0015978 139.0164 221.2246 14.69396879832199
PISAT                   
1 41784U 16059B   22298.00184226  .00000554  00000+0  11353-3 0  9990
2 41784  97.9019 336.2290 0032939 118.8771 241.5744 14.64062479324644
FLYING LAPTOP           
1 42831U 17042G   22298.11029241  .00000857  00000+0  89533-4 0  9996
2 42831  97.4068 144.9499 0012533 297.4718  62.5232 14.92038135287425
SALSAT                  
1 46495U 20068K   22297.83289884  .00002601  00000+0  18665-3 0  9993
2 46495  97.7416 239.2798 0015687 191.9637 168.1219 15.05134320113644
